IRIDIUM 166             
1 43570U 18061B   24010.16502877  .00000383  00000+0  12981-3 0  9995
2 43570  86.3946  68.2830 0002022  84.8855 275.2572 14.34218953285979
IRIDIUM 158             
1 43571U 18061C   24010.20308445  .00000330  00000+0  11076-3 0  9992
2 43571  86.3946  68.2761 0001847  95.5100 264.6307 14.34216814285959
IRIDIUM 165             
1 43572U 18061D   24010.15868580  .00000388  00000+0  13157-3 0  9993
2 43572  86.3948  68.3244 0001847  95.5376 264.6030 14.34218284285961
IRIDIUM 155             
1 43573U 18061E   24010.19039939  .00000357  00000+0  12051-3 0  9994
2 43573  86.3944  68.2241 0002320  88.9605 271.1856 14.34217678285945
IRIDIUM 154             
1 43574U 18061F   24010.17137111  .00000367  00000+0  12383-3 0  9993
2 43574  86.3949  68.3222 0002305  99.9862 260.1594 14.34217921285983
IRIDIUM 163             
1 43575U 18061G   24010.22210988  .00000326  00000+0  10918-3 0  9991
2 43575  86.3946  68.2438 0002263  96.4341 263.7113 14.34219388285969
IRIDIUM 156             
1 43576U 18061H   24009.56882198  .00000328  00000+0  10990-3 0  9997
2 43576  86.3947  68.5233 0001952  92.1138 268.0281 14.34219414285861
IRIDIUM 164             
1 43577U 18061J   24009.68933272  .00000347  00000+0  11673-3 0  9991
2 43577  86.3948  68.4994 0001951  97.5801 262.5616 14.34219555285925
